ONEWEB-0113             
1 48050U 21025J   21262.00001157  .00045414  00000-0  12376+0 0  9990
2 48050  87.8868 304.4452 0001710  94.1036 294.9384 13.13443414  3299
ONEWEB-0112             
1 48051U 21025K   21262.00001157  .00047901  00000-0  13051+0 0  9995
2 48051  87.8845 304.5131 0001924  92.8833 356.0293 13.13440736  3313
ONEWEB-0156             
1 48052U 21025L   21262.00001157  .00045715  00000-0  12457+0 0  9996
2 48052  87.8830 304.4318 0002021  89.5598 309.4586 13.13447158  3349
ONEWEB-0161             
1 48053U 21025M   21262.00001157  .00051096  00000-0  13917+0 0  9998
2 48053  87.8827 304.5163 0001933  93.1521  75.7200 13.13440451  3270
ONEWEB-0158             
1 48054U 21025N   21262.00001157  .00045124  00000-0  12296+0 0  9993
2 48054  87.8846 304.4243 0001611  86.1975 252.7146 13.13451731  3301
ONEWEB-0157             
1 48055U 21025P   21262.00001157  .00050145  00000-0  13658+0 0  9996
2 48055  87.8859 304.4759 0002447 100.1570 128.8004 13.13446291  3316
ONEWEB-0162             
1 48056U 21025Q   21262.00001157  .00081638  00000-0  22172+0 0  9999
2 48056  87.8874 304.4435 0002096  84.5411 324.3599 13.13415456  3315
ONEWEB-0155             
1 48057U 21025R   21262.00001157  .00046401  00000-0  12643+0 0  9991
2 48057  87.8832 304.5087 0002067  95.9378 203.0064 13.13448111  3314
ONEWEB-0149             
1 48058U 21025S   21262.00001157  .00050861  00000-0  13852+0 0  9990
2 48058  87.8782 304.4397 0002455  83.7689 125.0727 13.13446696  3318
ONEWEB-0148             
1 48059U 21025T   21262.00001157  .00045201  00000-0  12318+0 0  9999
2 48059  87.8832 304.4173 0002945  92.0710 286.8205 13.13444717  3318
ONEWEB-0160             
1 48060U 21025U   21262.00001157  .00046901  00000-0  12778+0 0  9999
2 48060  87.8820 304.4361 0001002  48.1738 240.7117 13.13451011  3294
ONEWEB-0163             
1 48061U 21025V   21262.00001157  .00045054  00000-0  12278+0 0  9993
2 48061  87.8841 304.4553 0002609 109.8364 259.1260 13.13445810  3287
ONEWEB-0159             
1 48062U 21025W   21262.00001157  .00047392  00000-0  12913+0 0  9997
2 48062  87.8819 304.4073 0002519  99.9225 339.0831 13.13440864  3281
ONEWEB-0164             
1 48063U 21025X   21262.00001157  .00050600  00000-0  13782+0 0  9999
2 48063  87.8821 304.4189 0001505 114.5139  34.4582 13.13444036  3302
ONEWEB-0167             
1 48064U 21025Y   21262.00001157  .00044985  00000-0  12259+0 0  9997
2 48064  87.8883 304.4398 0002273 100.8011 258.1118 13.13446733  3275
ONEWEB-0166             
1 48065U 21025Z   21262.00001157  .00048569  00000-0  13231+0 0  9991
2 48065  87.8856 304.5242 0002219  90.0539 168.8836 13.13446723  3307
ONEWEB-0151             
1 48066U 21025AA  21262.00001157  .00049159  00000-0  13391+0 0  9995
2 48066  87.8859 304.4588 0001657 114.6507 134.2442 13.13446717  3297
ONEWEB-0170             
1 48067U 21025AB  21262.00001157  .00050529  00000-0  13762+0 0  9991
2 48067  87.8888 304.4502 0001293 142.2844  76.5931 13.13447631  3289
ONEWEB-0168             
1 48068U 21025AC  21262.00001157  .00047476  00000-0  12931+0 0  9996
2 48068  87.8886 304.4550 0002163  89.4507 189.1460 13.13465158  3277
ONEWEB-0173             
1 48069U 21025AD  21262.00001157  .00045615  00000-0  12435+0 0  9999
2 48069  87.8838 304.4481 0002393 115.8642 203.3743 13.13418885  3297
ONEWEB-0171             
1 48070U 21025AE  21262.00001157  .00055649  00000-0  15150+0 0  9996
2 48070  87.8812 304.4539 0002390  86.2087  72.6629 13.13439194  3270
ONEWEB-0172             
1 48071U 21025AF  21261.40874986 -.00211449  00000-0 -34236+0 0  9998
2 48071  88.0477 302.7433 0008826  35.6553 324.5185 13.49753485 26992
ONEWEB-0174             
1 48072U 21025AG  21262.00001157  .00045334  00000-0  12355+0 0  9992
2 48072  87.8865 304.4486 0002908  87.9143 241.1344 13.13439710  3290
ONEWEB-0175             
1 48073U 21025AH  21262.00001157  .00051052  00000-0  13905+0 0  9999
2 48073  87.8866 304.5360 0001349 112.4721  86.3962 13.13441430  3273
ONEWEB-0177             
1 48074U 21025AJ  21262.00001157  .00050266  00000-0  13691+0 0  9998
2 48074  87.8792 304.4668 0002693 119.0801  19.9016 13.13445241  3307
ONEWEB-0178             
1 48075U 21025AK  21262.00001157  .00046470  00000-0  12661+0 0  9997
2 48075  87.8802 304.5108 0002124  96.3758 322.4180 13.13450842  3405
ONEWEB-0108             
1 48076U 21025AL  21262.00001157  .00049656  00000-0  13525+0 0  9997
2 48076  87.8853 304.4721 0002145  72.0384 166.9172 13.13449664  3289
ONEWEB-0169             
1 48077U 21025AM  21262.00001157  .00048412  00000-0  13189+0 0  9993
2 48077  87.8835 304.4349 0002328  80.0680  18.8793 13.13443682  3296
ONEWEB-0176             
1 48210U 21031A   21262.00001157  .00027265  00000-0  73302-1 0  9997
2 48210  87.8959 273.9518 0002196  99.8925  62.4243 13.14490653  3312
ONEWEB-0184             
1 48211U 21031B   21262.00001157  .00026479  00000-0  71081-1 0  9996
2 48211  87.9036 274.0073 0001262 128.2746 153.3540 13.14599939  3282
ONEWEB-0179             
1 48212U 21031C   21262.00001157  .00024524  00000-0  65950-1 0  9994
2 48212  87.8980 274.0066 0002343 100.1444 331.9750 13.14491382  3287
ONEWEB-0180             
1 48213U 21031D   21262.00001157  .00026819  00000-0  72078-1 0  9993
2 48213  87.9034 274.0080 0002118  95.3560 176.5664 13.14518341  3292
ONEWEB-0218             
1 48214U 21031E   21262.00001157  .00027650  00000-0  74733-1 0  9998
2 48214  87.8984 274.0066 0001821 113.2249  61.9902 13.14125284  3285
ONEWEB-0209             
1 48215U 21031F   21262.00001157  .00027205  00000-0  74182-1 0  9993
2 48215  87.9011 273.9973 0002354 106.3324 153.0256 13.13524176  3302
ONEWEB-0198             
1 48216U 21031G   21262.00001157  .00000013  00000-0  00000-0 0  9999
2 48216  87.9038 273.9384 0000985 106.8443 195.4431 13.15022411  3293
ONEWEB-0189             
1 48217U 21031H   21262.00001157  .00027870  00000-0  74918-1 0  9990
2 48217  87.8956 274.0109 0002128 116.5362 115.5511 13.14496046  3287
ONEWEB-0196             
1 48218U 21031J   21262.00001157  .00024084  00000-0  65669-1 0  9998
2 48218  87.9010 273.9572 0001532  90.6575 265.5544 13.13547117  3320
ONEWEB-0183             
1 48219U 21031K   21262.00001157  .00025327  00000-0  67892-1 0  9990
2 48219  87.9039 273.9613 0001966 104.8384 357.4651 13.14703679  3299
ONEWEB-0185             
1 48220U 21031L   21262.00001157  .00025045  00000-0  67346-1 0  9993
2 48220  87.8976 274.0045 0002324  93.4835 228.6559 13.14492154  3327
ONEWEB-0187             
1 48221U 21031M   21262.00001157  .00024787  00000-0  66657-1 0  9990
2 48221  87.8973 274.0079 0002163  95.6397 346.4723 13.14490242  3283
ONEWEB-0192             
1 48222U 21031N   21262.00001157  .00028021  00000-0  75334-1 0  9998
2 48222  87.8963 273.9877 0001774 105.5279 106.5735 13.14486242  3298
ONEWEB-0219             
1 48223U 21031P   21262.00001157  .00025713  00000-0  69136-1 0  9997
2 48223  87.8984 273.9842 0001958  99.3550 202.7531 13.14495243  3328
ONEWEB-0202             
1 48224U 21031Q   21262.00001157  .00023963  00000-0  64358-1 0  9994
2 48224  87.8970 274.0176 0002671 137.7482 259.0828 13.14581591  3326
ONEWEB-0204             
1 48225U 21031R   21262.00001157  .00025726  00000-0  69172-1 0  9993
2 48225  87.8933 274.0097 0001935  68.5794  43.4075 13.14493454  3281
ONEWEB-0205             
1 48226U 21031S   21262.00001157  .00024207  00000-0  65102-1 0  9996
2 48226  87.8983 273.9881 0000986 138.3057 213.9653 13.14489621  3309
ONEWEB-0206             
1 48227U 21031T   21262.00001157  .00000013  00000-0  00000-0 0  9991
2 48227  87.9098 273.9929 0003296  93.6649  16.5781 13.19374328  3286
ONEWEB-0182             
1 48228U 21031U   21262.00001157  .00026687  00000-0  71680-1 0  9990
2 48228  87.8972 274.0166 0002595 104.4258  35.4065 13.14560181  3295
ONEWEB-0186             
1 48229U 21031V   21262.00001157  .00025056  00000-0  67378-1 0  9999
2 48229  87.8958 274.0010 0002209 105.7204 346.3914 13.14488507  3327
ONEWEB-0181             
1 48230U 21031W   21262.00001157  .00027869  00000-0  75913-1 0  9999
2 48230  87.8961 273.9271 0001841  94.0003 124.2086 13.13593514  3325
ONEWEB-0188             
1 48231U 21031X   21262.00001157  .00023983  00000-0  64483-1 0  9993
2 48231  87.8977 274.0211 0002284  96.9343 275.0242 13.14506669  3289
ONEWEB-0220             
1 48232U 21031Y   21262.00001157  .00027925  00000-0  75075-1 0  9993
2 48232  87.8973 273.9848 0002456 104.6320  87.4227 13.14488498  3291
ONEWEB-0165             
1 48233U 21031Z   21262.00001157  .00024127  00000-0  64930-1 0  9993
2 48233  87.9005 274.0123 0002060 103.0769 309.1283 13.14443870  3301
ONEWEB-0199             
1 48234U 21031AA  21262.00001157  .00026535  00000-0  71280-1 0  9995
2 48234  87.8992 274.0215 0002003 108.4275  26.8789 13.14552296  3314
ONEWEB-0203             
1 48235U 21031AB  21262.00001157  .00027633  00000-0  74295-1 0  9995
2 48235  87.9012 273.9017 0001279 103.0945  79.0495 13.14486710  3306
ONEWEB-0197             
1 48236U 21031AC  21262.00001157  .00027691  00000-0  74490-1 0  9997
2 48236  87.8972 274.0134 0002231  98.6839 143.0514 13.14448561  3310
ONEWEB-0194             
1 48237U 21031AD  21262.00001157  .00023928  00000-0  64350-1 0  9991
2 48237  87.8988 274.0090 0001273  85.6925 306.2774 13.14491027  3288
ONEWEB-0193             
1 48238U 21031AE  21262.00001157  .00025386  00000-0  68259-1 0  9994
2 48238  87.8970 274.0121 0001722 104.2375 207.8858 13.14495765  3306
ONEWEB-0191             
1 48239U 21031AF  21262.00001157  .00027159  00000-0  73010-1 0  9996
2 48239  87.8992 274.0244 0001619  97.5615 164.4059 13.14497905  3313
ONEWEB-0195             
1 48240U 21031AG  21262.00001157  .00024073  00000-0  64736-1 0  9995
2 48240  87.8970 274.0040 0002289 114.4426 247.5743 13.14495459  3289
